{
    "links": {
        "self": "http://www.neowsapp.com/rest/v1/neo/3154492?api_key=iIulBulltgU6a56xZRHN4H3l9WmuAYTsLGpBGhQ2"
    },
    "id": "3154492",
    "neo_reference_id": "3154492",
    "name": "(2003 JP14)",
    "designation": "2003 JP14",
    "nasa_jpl_url": "http://ssd.jpl.nasa.gov/sbdb.cgi?sstr=3154492",
    "absolute_magnitude_h": 22.3,
    "estimated_diameter": {
        "kilometers": {
            "estimated_diameter_min": 0.0921626549,
            "estimated_diameter_max": 0.2060819612
        },
        "meters": {
            "estimated_diameter_min": 92.1626548503,
            "estimated_diameter_max": 206.0819612321
        },
        "miles": {
            "estimated_diameter_min": 0.057267201,
            "estimated_diameter_max": 0.1280533543
        },
        "feet": {
            "estimated_diameter_min": 302.370924539,
            "estimated_diameter_max": 676.1219416887
        }
    },
    "is_potentially_hazardous_asteroid": false,
    "close_approach_data": [
        {
            "close_approach_date": "2000-01-30",
            "close_approach_date_full": "2000-Jan-30 09:26",
            "epoch_date_close_approach": 949224360000,
            "relative_velocity": {
                "kilometers_per_second": "15.566582881",
                "kilometers_per_hour": "56039.698371578",
                "miles_per_hour": "34820.8892464953"
            },
            "miss_distance": {
                "astronomical": "0.3237359027",
                "lunar": "125.9332661503",
                "kilometers": "48430201.486447249",
                "miles": "30093131.7666160762"
            },
            "orbiting_body": "Earth"
        },
        {
            "close_approach_date": "2003-05-01",
            "close_approach_date_full": "2003-May-01 05:53",
            "epoch_date_close_approach": 1051768380000,
            "relative_velocity": {
                "kilometers_per_second": "12.0069522738",
                "kilometers_per_hour": "43225.0281858355",
                "miles_per_hour": "26858.3515413599"
            },
            "miss_distance": {
                "astronomical": "0.0705690838",
                "lunar": "27.4513735982",
                "kilometers": "10556984.624331506",
                "miles": "6559806.0633105428"
            },
            "orbiting_body": "Earth"
        },
        {
            "close_approach_date": "2006-05-30",
            "close_approach_date_full": "2006-May-30 16:35",
            "epoch_date_close_approach": 1149006900000,
            "relative_velocity": {
                "kilometers_per_second": "24.4477592977",
                "kilometers_per_hour": "88011.9334718712",
                "miles_per_hour": "54687.1927731191"
            },
            "miss_distance": {
                "astronomical": "0.4807998855",
                "lunar": "187.0311554595",
                "kilometers": "71926638.767043885",
                "miles": "44693140.881360213"
            },
            "orbiting_body": "Earth"
        }
    ],
    "orbital_data": {
        "orbit_id": "12",
        "orbit_determination_date": "2017-04-06 09:14:05",
        "first_observation_date": "2003-05-09",
        "last_observation_date": "2003-06-08",
        "data_arc_in_days": 30,
        "observations_used": 50,
        "orbit_uncertainty": "7",
        "minimum_orbit_intersection": ".0705409",
        "jupiter_tisserand_invariant": "3.500",
        "epoch_osculation": "2459000.5",
        "eccentricity": ".5429319795689544",
        "semi_major_axis": "2.115319683433657",
        "inclination": "13.65434854090249",
        "ascending_node_longitude": "52.45868154764864",
        "orbital_period": "1123.731209605765",
        "perihelion_distance": ".9668449802858474",
        "perihelion_argument": "127.2761807285905",
        "aphelion_distance": "3.263794386581466",
        "perihelion_time": "2459473.272335527954",
        "mean_anomaly": "208.5420362670416",
        "mean_motion": ".3203613078667608",
        "equinox": "J2000",
        "orbit_class": {
            "orbit_class_type": "APO",
            "orbit_class_description": "Near-Earth asteroid orbits which cross the Earth’s orbit similar to that of 1862 Apollo",
            "orbit_class_range": "a (semi-major axis) > 1.0 AU; q (perihelion) < 1.017 AU"
        }
    },
    "is_sentry_object": false
}